KUZGTU 1 (RS47S)        
1 57217U 23091AV  26187.84972007  .00009395  00000+0  32219-3 0  9993
2 57217  97.5050 252.5348 0010967  35.2176 324.9787 15.30340616167380
SONATE-2                
1 59112U 24043Q   26187.38872041  .00044047  00000+0  53835-3 0  9993
2 59112  97.5550 338.9857 0006988 133.3094 226.8746 15.60279237130885
MESAT1                  
1 60209U 24125G   26187.16963020  .00069230  00000+0  68614-3 0  9999
2 60209  97.2266  45.1111 0010839 140.5474 219.6578 15.65526944112537
OOV-CUBE (TUBSAT-30)    
1 60240U 24128F   26187.28481457  .00002356  00000+0  18731-3 0  9990
2 60240  61.9939 158.9762 0042222 137.9809 222.4534 15.02849256108988
COLIBRI-S (RS67S)       
1 61746U 24199M   26187.32374450  .00023090  00000+0  43368-3 0  9991
2 61746  97.2965  61.3593 0007839 194.2503 165.8528 15.48574041140371
HORS 3 (RS81S)          
1 61753U 24199U   26187.32272432  .00041246  00000+0  58299-3 0  9998
2 61753  97.2945  63.5595 0005921 184.6712 175.4489 15.56416827140535
HORS 4 (RS82S)          
1 61754U 24199V   26187.35085801  .00053693  00000+0  62131-3 0  9993
2 61754  97.2887  64.9200 0005962 175.0883 185.0434 15.61674930140632
SIT-2086                
1 61764U 24199AF  26187.32424483  .00040447  00000+0  61258-3 0  9996
2 61764  97.2902  63.9710 0007194 171.9647 188.1724 15.54524208137409
HYPERVIEW 1G (RS66S)    
1 61772U 24199AP  26187.33248567  .00222867  00000+0  10608-2 0  9993
2 61772  97.2815  68.0964 0007699 165.5082 194.6410 15.82249436137693
ALTAIR (RS65S)          
1 61779U 24199AW  26187.38035251  .00007702  00000+0  21189-3 0  9995
2 61779  97.3004  56.6064 0011172 230.8132 129.2121 15.37398964140067
ASRTU-1 (AO-123)        
1 61781U 24199AY  26187.32045350  .00007956  00000+0  22900-3 0  9996
2 61781  97.2975  55.8194 0012156 235.1344 124.8758 15.35965068136860
SAMSAT-IONOSPHERE (RS7*)
1 61784U 24199BB  26187.32195006  .00054482  00000+0  68527-3 0  9994
2 61784  97.2911  63.6791 0008081 190.6531 169.4556 15.59465291140548
RTU MIREA 1 (RS51S)     
1 61785U 24199BC  26187.36534779  .00065919  00000+0  71115-3 0  9997
2 61785  97.2894  64.6604 0008217 184.0431 176.0763 15.63417293137465
TEVEL2-4                
1 63213U 25052D   26186.63149192  .00019908  00000+0  58188-3 0  9996
2 63213  97.3873  83.0589 0004350  69.8583 290.3129 15.35313500 72942
TEVEL2-5                
1 63214U 25052E   26187.24076106  .00019953  00000+0  58612-3 0  9991
2 63214  97.3872  83.6119 0004283  70.9750 289.1957 15.35155379 73035
TEVEL2-6                
1 63215U 25052F   26187.25352612  .00020103  00000+0  59119-3 0  9994
2 63215  97.3877  83.6095 0004121  74.3396 285.8302 15.35119295 73033
TEVEL2-1                
1 63217U 25052H   26187.15891383  .00018483  00000+0  55360-3 0  9990
2 63217  97.3845  83.1159 0004762  78.4385 281.7392 15.34555105 73004
TEVEL2-3                
1 63218U 25052J   26187.28324749  .00019508  00000+0  58290-3 0  9996
2 63218  97.3854  83.2650 0004534  79.6350 280.5404 15.34621084 73027
TEVEL2-2                
1 63219U 25052K   26187.22431158  .00018535  00000+0  55492-3 0  9994
2 63219  97.3848  83.1842 0004805  79.1596 281.0187 15.34568065 73013
OTP-2                   
1 63235U 25052AB  26187.26683711  .00006978  00000+0  28853-3 0  9999
2 63235  97.3842  79.4124 0008319  95.1214 265.0973 15.24257322 72772
TEVEL2-9                
1 63237U 25052AD  26187.22663181  .00017133  00000+0  54670-3 0  9997
2 63237  97.3913  82.5200 0008210  81.6100 278.6072 15.32533643 72948
TEVEL2-7                
1 63238U 25052AE  26187.27128578  .00017524  00000+0  56453-3 0  9994
2 63238  97.3912  82.4723 0008260  81.6861 278.5317 15.32222950 72943
TEVEL2-8                
1 63239U 25052AF  26187.21441472  .00016878  00000+0  54414-3 0  9996
2 63239  97.3910  82.3920 0008258  82.3309 277.8871 15.32206378 72934
INNOSAT 16 (RS92S7)     
1 64878U 25155C   26187.35170477  .00005860  00000+0  23257-3 0  9999
2 64878  97.4577 154.4215 0012318 114.7999 245.4522 15.25672612 83597
GEOSCAN 6 (RS92S6)      
1 64879U 25155D   26187.34016682  .00010571  00000+0  36005-3 0  9996
2 64879  97.4568 155.9714 0009931 106.9811 253.2519 15.30535780 83695
GEOSCAN 1 (RS92S1)      
1 64880U 25155E   26187.33492860  .00011435  00000+0  38166-3 0  9993
2 64880  97.4565 156.1311 0009873 107.0720 253.1603 15.31171569 83703
239ALFEROV (RS61S)      
1 64881U 25155F   26187.34174075  .00014910  00000+0  46196-3 0  9993
2 64881  97.4565 156.7654 0009569 106.2572 253.9723 15.33495675 83742
GEOSCAN 2 (RS92S2)      
1 64890U 25155Q   26187.39063717  .00011635  00000+0  38520-3 0  9991
2 64890  97.4564 156.3472 0009266  96.5750 263.6547 15.31431947 83728
GEOSCAN 5 (RS92S5)      
1 64891U 25155R   26187.39207135  .00015029  00000+0  46119-3 0  9990
2 64891  97.4557 156.9610 0008554 109.8891 250.3274 15.33808795 83769
GEOSCAN 4 (RS92S4)      
1 64892U 25155S   26187.37428234  .00013544  00000+0  41385-3 0  9994
2 64892  97.4560 156.9971 0008542 109.9538 250.2626 15.33969869 83760
