OBJECT_NAME,OBJECT_ID,EPOCH,MEAN_MOTION,ECCENTRICITY,INCLINATION,RA_OF_ASC_NODE,ARG_OF_PERICENTER,MEAN_ANOMALY,EPHEMERIS_TYPE,CLASSIFICATION_TYPE,NORAD_CAT_ID,ELEMENT_SET_NO,REV_AT_EPOCH,BSTAR,MEAN_MOTION_DOT,MEAN_MOTION_DDOT
KUZGTU 1 (RS47S),2023-091AV,2026-07-06T20:23:35.814048,15.30340616,.0010967,97.5050,252.5348,35.2176,324.9787,0,U,57217,999,16738,.32219E-3,.9395E-4,0
SONATE-2,2024-043Q,2026-07-06T09:19:45.443424,15.60279237,.00069887,97.5550,338.9857,133.3094,226.8746,0,U,59112,999,13088,.53834934E-3,.44047E-3,0
MESAT1,2024-125G,2026-07-06T04:04:16.049280,15.65526944,.00108396,97.2266,45.1111,140.5474,219.6578,0,U,60209,999,11253,.68614424E-3,.6923E-3,0
OOV-CUBE (TUBSAT-30),2024-128F,2026-07-06T06:50:07.978848,15.02849256,.00422223,61.9939,158.9762,137.9809,222.4534,0,U,60240,999,10898,.18730599E-3,.2356E-4,0
COLIBRI-S (RS67S),2024-199M,2026-07-06T07:46:11.524800,15.48574041,.00078399,97.2965,61.3593,194.2503,165.8528,0,U,61746,999,14037,.43368358E-3,.2309E-3,0
HORS 3 (RS81S),2024-199U,2026-07-06T07:44:43.381248,15.56416827,.00059219,97.2945,63.5595,184.6712,175.4489,0,U,61753,999,14053,.5829934E-3,.41246E-3,0
HORS 4 (RS82S),2024-199V,2026-07-06T08:25:14.132064,15.61674930,.00059627,97.2887,64.9200,175.0883,185.0434,0,U,61754,999,14063,.62131074E-3,.53693E-3,0
SIT-2086,2024-199AF,2026-07-06T07:46:54.753312,15.54524208,.00071944,97.2902,63.9710,171.9647,188.1724,0,U,61764,999,13740,.61258259E-3,.40447E-3,0
HYPERVIEW 1G (RS66S),2024-199AP,2026-07-06T07:58:46.761888,15.82249436,.00076993,97.2815,68.0964,165.5082,194.6410,0,U,61772,999,13769,.10608147E-2,.222867E-2,0
ALTAIR (RS65S),2024-199AW,2026-07-06T09:07:42.456864,15.37398964,.00111726,97.3004,56.6064,230.8132,129.2121,0,U,61779,999,14006,.21189474E-3,.7702E-4,0
ASRTU-1 (AO-123),2024-199AY,2026-07-06T07:41:27.182400,15.35965068,.00121569,97.2975,55.8194,235.1344,124.8758,0,U,61781,999,13686,.22900025E-3,.7956E-4,0
SAMSAT-IONOSPHERE (RS75S),2024-199BB,2026-07-06T07:43:36.485184,15.59465291,.00080818,97.2911,63.6791,190.6531,169.4556,0,U,61784,999,14054,.68527043E-3,.54482E-3,0
RTU MIREA 1 (RS51S),2024-199BC,2026-07-06T08:46:06.049056,15.63417293,.00082172,97.2894,64.6604,184.0431,176.0763,0,U,61785,999,13746,.71114848E-3,.65919E-3,0
TEVEL2-4,2025-052D,2026-07-05T15:09:20.901888,15.35313500,.000435,97.3873,83.0589,69.8583,290.3129,0,U,63213,999,7294,.58188194E-3,.19908E-3,0
TEVEL2-5,2025-052E,2026-07-06T05:46:41.755584,15.35155379,.00042833,97.3872,83.6119,70.9750,289.1957,0,U,63214,999,7303,.58611841E-3,.19953E-3,0
TEVEL2-6,2025-052F,2026-07-06T06:05:04.656768,15.35119295,.0004121,97.3877,83.6095,74.3396,285.8302,0,U,63215,999,7303,.59119234E-3,.20103E-3,0
TEVEL2-1,2025-052H,2026-07-06T03:48:50.154912,15.34555105,.00047628,97.3845,83.1159,78.4385,281.7392,0,U,63217,999,7300,.55360393E-3,.18483E-3,0
TEVEL2-3,2025-052J,2026-07-06T06:47:52.583136,15.34621084,.00045342,97.3854,83.2650,79.6350,280.5404,0,U,63218,999,7302,.58289939E-3,.19508E-3,0
TEVEL2-2,2025-052K,2026-07-06T05:23:00.520512,15.34568065,.00048058,97.3848,83.1842,79.1596,281.0187,0,U,63219,999,7301,.55491943E-3,.18535E-3,0
OTP-2,2025-052AB,2026-07-06T06:24:14.726304,15.24257322,.00083196,97.3842,79.4124,95.1214,265.0973,0,U,63235,999,7277,.28852968E-3,.6978E-4,0
TEVEL2-9,2025-052AD,2026-07-06T05:26:20.988384,15.32533643,.00082104,97.3913,82.5200,81.6100,278.6072,0,U,63237,999,7294,.54669726E-3,.17133E-3,0
TEVEL2-7,2025-052AE,2026-07-06T06:30:39.091392,15.32222950,.00082609,97.3912,82.4723,81.6861,278.5317,0,U,63238,999,7294,.56452837E-3,.17524E-3,0
TEVEL2-8,2025-052AF,2026-07-06T05:08:45.431808,15.32206378,.00082582,97.3910,82.3920,82.3309,277.8871,0,U,63239,999,7293,.54413633E-3,.16878E-3,0
INNOSAT 16 (RS92S7),2025-155C,2026-07-06T08:26:27.292128,15.25672612,.0012318,97.4577,154.4215,114.7999,245.4522,0,U,64878,999,8359,.23256862E-3,.586E-4,0
GEOSCAN 6 (RS92S6),2025-155D,2026-07-06T08:09:50.413248,15.30535780,.00099312,97.4568,155.9714,106.9811,253.2519,0,U,64879,999,8369,.36004874E-3,.10571E-3,0
GEOSCAN 1 (RS92S1),2025-155E,2026-07-06T08:02:17.831040,15.31171569,.00098732,97.4565,156.1311,107.0720,253.1603,0,U,64880,999,8370,.38166118E-3,.11435E-3,0
239ALFEROV (RS61S),2025-155F,2026-07-06T08:12:06.400800,15.33495675,.00095692,97.4565,156.7654,106.2572,253.9723,0,U,64881,999,8374,.46196053E-3,.1491E-3,0
GEOSCAN 2 (RS92S2),2025-155Q,2026-07-06T09:22:31.051488,15.31431947,.00092669,97.4564,156.3472,96.5750,263.6547,0,U,64890,999,8372,.38520429E-3,.11635E-3,0
GEOSCAN 5 (RS92S5),2025-155R,2026-07-06T09:24:34.964640,15.33808795,.00085547,97.4557,156.9610,109.8891,250.3274,0,U,64891,999,8376,.46118987E-3,.15029E-3,0
GEOSCAN 4 (RS92S4),2025-155S,2026-07-06T08:58:57.994176,15.33969869,.00085428,97.4560,156.9971,109.9538,250.2626,0,U,64892,999,8376,.41385346E-3,.13544E-3,0
